NORAD_CAT_ID,OBJECT_NAME,OBJECT_TYPE,EPOCH,MEAN_MOTION,ECCENTRICITY,INCLINATION,RA_OF_ASC_NODE,ARG_OF_PERICENTER,MEAN_ANOMALY,BSTAR,MEAN_MOTION_DOT,MEAN_MOTION_DDOT,TLE_LINE0,TLE_LINE1,TLE_LINE2,SEMIMAJOR_AXIS,PERIOD,APOGEE,PERIGEE,DECAYED
55958.0,STARLINK-5928,PAYLOAD,2023-06-08 10:12:45,15.6992365,0.0003676,69.9995,308.6592,268.7944,91.283,-4.703e-06,-7.78e-06,0.0,0 STARLINK-5928,1 55958U 23037AW  23159.42552671 -.00000778  00000-0 -47030-5 0  9992,2 55958  69.9995 308.6592 0003676 268.7944  91.2830 15.69923650 13504,6737.252,91.724,361.594,356.641,0.0
55958.0,STARLINK-5928,PAYLOAD,2023-06-08 11:44:30,15.69926903,0.0003631,69.9992,308.4793,267.8371,92.2409,-1.0674e-06,-3.41e-06,0.0,0 STARLINK-5928,1 55958U 23037AW  23159.48924296 -.00000341  00000-0 -10674-5 0  9994,2 55958  69.9992 308.4793 0003631 267.8371  92.2409 15.69926903 13177,6737.243,91.724,361.554,356.662,0.0
55958.0,STARLINK-5928,PAYLOAD,2023-06-08 13:16:15,15.699266,0.0003314,69.9996,308.3006,270.3635,89.7181,6.0093e-06,5.1e-06,0.0,0 STARLINK-5928,1 55958U 23037AW  23159.55296070  .00000510  00000-0  60093-5 0  9990,2 55958  69.9996 308.3006 0003314 270.3635  89.7181 15.69926600 13180,6737.244,91.724,361.342,356.876,0.0
55958.0,STARLINK-5928,PAYLOAD,2023-06-08 19:23:15,15.69939438,0.0003977,69.9993,307.5853,272.1676,87.9064,2.6334e-05,2.957e-05,0.0,0 STARLINK-5928,1 55958U 23037AW  23159.80781918  .00002957  00000-0  26334-4 0  9994,2 55958  69.9993 307.5853 0003977 272.1676  87.9064 15.69939438 13563,6737.207,91.723,361.752,356.393,0.0
55958.0,STARLINK-5928,PAYLOAD,2023-06-09 10:40:47,15.69922303,0.000338,69.9999,305.7928,274.9667,85.1143,4.0513e-06,2.74e-06,0.0,0 STARLINK-5928,1 55958U 23037AW  23160.44499679  .00000274  00000-0  40513-5 0  9992,2 55958  69.9999 305.7928 0003380 274.9667  85.1143 15.69922303 13325,6737.256,91.724,361.398,356.844,0.0
55958.0,STARLINK-5928,PAYLOAD,2023-06-09 12:12:32,15.69920011,0.000344,69.9995,305.6132,273.8281,86.2521,9.6185e-06,9.44e-06,0.0,0 STARLINK-5928,1 55958U 23037AW  23160.50871419  .00000944  00000-0  96185-5 0  9995,2 55958  69.9995 305.6132 0003440 273.8281  86.2521 15.69920011 13678,6737.263,91.724,361.445,356.81,0.0
55958.0,STARLINK-5928,PAYLOAD,2023-06-10 09:37:04,15.69927026,0.000338,69.9994,303.1055,274.7062,85.3748,2.0851e-05,2.295e-05,0.0,0 STARLINK-5928,1 55958U 23037AW  23161.40074604  .00002295  00000-0  20851-4 0  9993,2 55958  69.9994 303.1055 0003380 274.7062  85.3748 15.69927026 13476,6737.243,91.724,361.385,356.831,0.0
55958.0,STARLINK-5928,PAYLOAD,2023-06-10 14:12:19,15.69925341,0.0003374,69.9989,302.5687,271.0878,88.9931,7.1655e-06,6.49e-06,0.0,0 STARLINK-5928,1 55958U 23037AW  23161.59189695  .00000649  00000-0  71655-5 0  9990,2 55958  69.9989 302.5687 0003374 271.0878  88.9931 15.69925341 13844,6737.248,91.724,361.386,356.839,0.0
55958.0,STARLINK-5928,PAYLOAD,2023-06-11 13:08:36,15.6992624,0.000355,69.9988,299.8812,274.2876,85.7914,1.1438e-05,1.163e-05,0.0,0 STARLINK-5928,1 55958U 23037AW  23162.54764744  .00001163  00000-0  11438-4 0  9994,2 55958  69.9988 299.8812 0003550 274.2876  85.7914 15.69926240 13654,6737.245,91.724,361.502,356.718,0.0
55958.0,STARLINK-5928,PAYLOAD,2023-06-11 17:43:51,15.69938396,0.0003709,69.9984,299.3445,272.609,87.4681,-9.8764e-07,-3.32e-06,0.0,0 STARLINK-5928,1 55958U 23037AW  23162.73879010 -.00000332  00000-0 -98764-6 0  9996,2 55958  69.9984 299.3445 0003709 272.6090  87.4681 15.69938396 14020,6737.21,91.723,361.574,356.576,0.0
55958.0,STARLINK-5928,PAYLOAD,2023-06-11 19:15:36,15.69931094,0.0003691,69.9986,299.1657,270.5844,89.4929,1.9582e-05,2.143e-05,0.0,0 STARLINK-5928,1 55958U 23037AW  23162.80251073  .00002143  00000-0  19582-4 0  9996,2 55958  69.9986 299.1657 0003691 270.5844  89.4929 15.69931094 14035,6737.231,91.724,361.583,356.609,0.0
55958.0,STARLINK-5928,PAYLOAD,2023-06-12 15:08:24,15.699192,0.000364,69.999,296.8357,272.33,87.7479,5.7474e-07,-1.44e-06,0.0,0 STARLINK-5928,1 55958U 23037AW  23163.63083490 -.00000144  00000-0  57474-6 0  9998,2 55958  69.9990 296.8357 0003640 272.3300  87.7479 15.69919200 14162,6737.265,91.724,361.583,356.678,0.0
55958.0,STARLINK-5928,PAYLOAD,2023-06-13 01:50:39,15.69927653,0.0003565,69.9988,295.5802,259.2221,100.8573,1.4171e-05,1.492e-05,0.0,0 STARLINK-5928,1 55958U 23037AW  23164.07684677  .00001492  00000-0  14171-4 0  9992,2 55958  69.9988 295.5802 0003565 259.2221 100.8573 15.69927653 14233,6737.241,91.724,361.508,356.704,0.0
55958.0,STARLINK-5928,PAYLOAD,2023-06-13 12:32:55,15.69918445,0.0003434,69.9993,294.328,270.5919,89.4884,-2.6404e-06,-5.3e-06,0.0,0 STARLINK-5928,1 55958U 23037AW  23164.52287023 -.00000530  00000-0 -26404-5 0  9993,2 55958  69.9993 294.3280 0003434 270.5919  89.4884 15.69918445 13966,6737.267,91.725,361.446,356.819,0.0
55958.0,STARLINK-5928,PAYLOAD,2023-06-13 18:39:56,15.69921603,0.0003276,69.9987,293.6103,260.6379,99.4447,1.7712e-06,0.0,0.0,0 STARLINK-5928,1 55958U 23037AW  23164.77773554  .00000000  00000-0  17712-5 0  9991,2 55958  69.9987 293.6103 0003276 260.6379  99.4447 15.69921603 14348,6737.258,91.724,361.33,356.916,0.0
55958.0,STARLINK-5928,PAYLOAD,2023-06-14 08:25:42,15.69922458,0.0003512,69.9997,291.9989,269.9292,90.1501,4.4259e-06,3.19e-06,0.0,0 STARLINK-5928,1 55958U 23037AW  23165.35118463  .00000319  00000-0  44259-5 0  9997,2 55958  69.9997 291.9989 0003512 269.9292  90.1501 15.69922458 14091,6737.256,91.724,361.487,356.755,0.0
55958.0,STARLINK-5928,PAYLOAD,2023-06-15 01:14:59,15.69920913,0.0003542,69.9975,290.0288,269.8738,90.2051,1.4422e-06,-4e-07,0.0,0 STARLINK-5928,1 55958U 23037AW  23166.05207276 -.00000040  00000-0  14422-5 0  9997,2 55958  69.9975 290.0288 0003542 269.8738  90.2051 15.69920913 14541,6737.26,91.724,361.512,356.739,0.0
55958.0,STARLINK-5928,PAYLOAD,2023-06-15 11:57:14,15.69922022,0.0003461,69.9982,288.7736,266.8813,93.1987,1.1854e-05,1.213e-05,0.0,0 STARLINK-5928,1 55958U 23037AW  23166.49808676  .00001213  00000-0  11854-4 0  9993,2 55958  69.9982 288.7736 0003461 266.8813  93.1987 15.69922022 14275,6737.257,91.724,361.454,356.79,0.0
55958.0,STARLINK-5928,PAYLOAD,2023-06-15 18:04:14,15.69929116,0.0003497,69.9982,288.0573,271.3854,88.6941,2.2716e-05,2.52e-05,0.0,0 STARLINK-5928,1 55958U 23037AW  23166.75294763  .00002520  00000-0  22716-4 0  9999,2 55958  69.9982 288.0573 0003497 271.3854  88.6941 15.69929116 14654,6737.237,91.724,361.458,356.746,0.0
55958.0,STARLINK-5928,PAYLOAD,2023-06-16 13:57:00,15.69931334,0.0003698,69.9979,285.7285,271.1417,88.9355,1.7076e-05,1.841e-05,0.0,0 STARLINK-5928,1 55958U 23037AW  23167.58126125  .00001841  00000-0  17076-4 0  9995,2 55958  69.9979 285.7285 0003698 271.1417  88.9355 15.69931334 14444,6737.23,91.724,361.587,356.604,0.0
55958.0,STARLINK-5928,PAYLOAD,2023-06-16 17:00:32,15.69914821,0.0003464,69.9988,285.3705,272.9394,87.1405,2.6648e-06,1.08e-06,0.0,0 STARLINK-5928,1 55958U 23037AW  23167.70870790  .00000108  00000-0  26648-5 0  9994,2 55958  69.9988 285.3705 0003464 272.9394  87.1405 15.69914821 14462,6737.278,91.725,361.476,356.809,0.0
55958.0,STARLINK-5928,PAYLOAD,2023-06-17 11:21:34,15.69912514,0.0003367,69.9988,283.2207,274.5854,85.4957,-6.8974e-06,-1.042e-05,0.0,0 STARLINK-5928,1 55958U 23037AW  23168.47331704 -.00001042  00000-0 -68974-5 0  9994,2 55958  69.9988 283.2207 0003367 274.5854  85.4957 15.69912514 14580,6737.284,91.725,361.418,356.881,0.0
55958.0,STARLINK-5928,PAYLOAD,2023-06-17 15:56:48,15.69928243,0.000351,69.9985,282.6831,272.2616,87.8178,1.2869e-05,1.335e-05,0.0,0 STARLINK-5928,1 55958U 23037AW  23168.66445335  .00001335  00000-0  12869-4 0  9995,2 55958  69.9985 282.6831 0003510 272.2616  87.8178 15.69928243 14615,6737.239,91.724,361.469,356.74,0.0
55958.0,STARLINK-5928,PAYLOAD,2023-06-18 01:07:19,15.69929878,0.0003518,69.9981,281.6089,270.2906,89.7887,9.6682e-06,9.5e-06,0.0,0 STARLINK-5928,1 55958U 23037AW  23169.04675186  .00000950  00000-0  96682-5 0  9995,2 55958  69.9981 281.6089 0003518 270.2906  89.7887 15.69929878 15011,6737.235,91.724,361.47,356.729,0.0
55958.0,STARLINK-5928,PAYLOAD,2023-06-18 22:00:00,15.69960678,0.0003405,70.0006,279.1621,271.5596,323.5854,-0.00080202,-0.00095704,0.0,0 STARLINK-5928,1 55958U 23037AW  23169.91667824 -.00095704  00000-0 -80202-3 0  9993,2 55958  70.0006 279.1621 0003405 271.5596 323.5854 15.69960678 15140,6737.147,91.722,361.305,356.718,0.0
55958.0,STARLINK-5928,PAYLOAD,2023-06-19 06:10:37,15.69915533,0.0002694,69.9992,278.2082,274.4903,85.5984,3.5403e-05,4.045e-05,0.0,0 STARLINK-5928,1 55958U 23037AW  23170.25737400  .00004045  00000-0  35403-4 0  9990,2 55958  69.9992 278.2082 0002694 274.4903  85.5984 15.69915533 15201,6737.276,91.725,360.956,357.326,0.0
55958.0,STARLINK-5928,PAYLOAD,2023-06-19 13:49:22,15.69924563,0.0003555,69.9981,277.3086,269.7396,90.3392,1.9776e-05,2.166e-05,0.0,0 STARLINK-5928,1 55958U 23037AW  23170.57595590  .00002166  00000-0  19776-4 0  9994,2 55958  69.9981 277.3086 0003555 269.7396  90.3392 15.69924563 14910,6737.25,91.724,361.51,356.72,0.0
55958.0,STARLINK-5928,PAYLOAD,2023-06-20 06:38:39,15.69916488,0.0003312,69.9978,275.3382,268.564,91.5176,-5.1794e-07,-2.75e-06,0.0,0 STARLINK-5928,1 55958U 23037AW  23171.27685012 -.00000275  00000-0 -51794-6 0  9990,2 55958  69.9978 275.3382 0003312 268.5640  91.5176 15.69916488 15363,6737.273,91.725,361.369,356.907,0.0
55958.0,STARLINK-5928,PAYLOAD,2023-06-20 17:20:54,15.6993284,0.0003257,69.9985,274.0897,272.9966,87.0857,4.7034e-06,3.53e-06,0.0,0 STARLINK-5928,1 55958U 23037AW  23171.72285472  .00000353  00000-0  47034-5 0  9992,2 55958  69.9985 274.0897 0003257 272.9966  87.0857 15.69932840 15430,6737.226,91.724,361.285,356.897,0.0
55958.0,STARLINK-5928,PAYLOAD,2023-06-21 10:10:11,15.69922231,0.0003778,69.9975,272.1137,274.4076,85.6688,3.2184e-06,1.74e-06,0.0,0 STARLINK-5928,1 55958U 23037AW  23172.42374526  .00000174  00000-0  32184-5 0  9990,2 55958  69.9975 272.1137 0003778 274.4076  85.6688 15.69922231 15543,6737.256,91.724,361.667,356.576,0.0
